IRIDIUM 112             
1 41925U 17003J   24201.51812811  .00000220  00000+0  71356-4 0  9997
2 41925  86.3966  19.8492 0001967  97.9310 262.2109 14.34217741393276
IRIDIUM 111             
1 41926U 17003K   24201.85428478  .00000094  00000+0  26631-4 0  9992
2 41926  86.3968  19.7639 0002297  98.3767 261.7690 14.34218106393375
IRIDIUM 113             
1 42803U 17039A   24201.55517536  .00000069  00000+0  17744-4 0  9994
2 42803  86.3951 253.6551 0002380  97.8940 262.2526 14.34218140371192
IRIDIUM 123             
1 42804U 17039B   24201.59665151  .00000519  00000+0  17840-3 0  9992
2 42804  86.3963 285.1465 0002286  96.7608 263.3848 14.34220649369962
IRIDIUM 120             
1 42805U 17039C   24201.54883234  .00000478  00000+0  16369-3 0  9991
2 42805  86.3938 253.5305 0002291  92.0219 268.1239 14.34218225371181
IRIDIUM 115             
1 42806U 17039D   24201.58101543  .00000737  00000+0  21304-3 0  9995
2 42806  86.4478 253.5465 0002531 100.5225 259.6261 14.43286941373641
IRIDIUM 118             
1 42807U 17039E   24201.48882771  .00000230  00000+0  75227-4 0  9996
2 42807  86.3963 285.1927 0002135  94.8584 265.2856 14.34219589369942
IRIDIUM 117             
1 42808U 17039F   24201.50785800  .00000088  00000+0  24301-4 0  9993
2 42808  86.3963 285.1490 0002489  96.5044 263.6435 14.34218290369976
